NORAD_CAT_ID,OBJECT_NAME,OBJECT_TYPE,EPOCH,MEAN_MOTION,ECCENTRICITY,INCLINATION,RA_OF_ASC_NODE,ARG_OF_PERICENTER,MEAN_ANOMALY,BSTAR,MEAN_MOTION_DOT,MEAN_MOTION_DDOT,TLE_LINE0,TLE_LINE1,TLE_LINE2,SEMIMAJOR_AXIS,PERIOD,APOGEE,PERIGEE,DECAYED
50838.0,STARLINK-3322,PAYLOAD,2022-08-28 15:22:24,15.08845831,0.0002054,53.2173,205.8923,58.1898,301.9294,3.1595e-05,2.15e-06,0.0,0 STARLINK-3322,1 50838U 22001AM  22240.64055566  .00000215  00000-0  31595-4 0  9991,2 50838  53.2173 205.8923 0002054  58.1898 301.9294 15.08845831 35667,6917.863,95.437,541.148,538.307,0.0
50838.0,STARLINK-3322,PAYLOAD,2022-08-29 07:16:15,15.088447899999998,0.0002185,53.2175,202.9192,57.785,302.3354,0.00013177,1.810000000000001e-05,0.0,0 STARLINK-3322,1 50838U 22001AM  22241.30295184  .00001810  00000-0  13177-3 0  9994,2 50838  53.2175 202.9192 0002185  57.7850 302.3354 15.08844790 35769,6917.866,95.437,541.242,538.219,0.0
50838.0,STARLINK-3322,PAYLOAD,2022-08-30 03:56:16,15.08834953,0.0002209,53.2175,199.0536,59.0265,301.0944,-1.4584e-05,-5.2e-06,0.0,0 STARLINK-3322,1 50838U 22001AM  22242.16408413 -.00000520  00000-0 -14584-4 0  9993,2 50838  53.2175 199.0536 0002209  59.0265 301.0944 15.08834953 37098,6917.896,95.438,541.289,538.2330000000002,0.0
50838.0,STARLINK-3322,PAYLOAD,2022-08-31 05:22:27,15.08835801,0.0002206,53.2176,194.294,58.7506,301.3702,-5.426600000000001e-05,-1.152e-05,0.0,0 STARLINK-3322,1 50838U 22001AM  22243.22392555 -.00001152  00000-0 -54266-4 0  9993,2 50838  53.2176 194.2940 0002206  58.7506 301.3702 15.08835801 37252,6917.893,95.438,541.284,538.232,0.0
50838.0,STARLINK-3322,PAYLOAD,2022-08-31 21:16:18,15.08834833,0.0002194,53.2173,191.3193,55.2251,304.8948,6.3971e-06,-1.86e-06,0.0,0 STARLINK-3322,1 50838U 22001AM  22243.88632716 -.00000186  00000-0  63971-5 0  9990,2 50838  53.2173 191.3193 0002194  55.2251 304.8948 15.08834833 36154,6917.896,95.438,541.279,538.243,0.0
50838.0,STARLINK-3322,PAYLOAD,2022-09-01 06:48:37,15.08839831,0.0002222,53.2178,189.5382,57.0709,303.0497,4.612e-05,4.46e-06,0.0,0 STARLINK-3322,1 50838U 22001AM  22244.28376387  .00000446  00000-0  46120-4 0  9998,2 50838  53.2178 189.5382 0002222  57.0709 303.0497 15.08839831 37411,6917.880999999999,95.438,541.283,538.2090000000002,0.0
50838.0,STARLINK-3322,PAYLOAD,2022-09-01 13:10:09,15.088448800000002,0.0002218,53.2179,188.349,57.74100000000001,302.3796,8.7151e-05,1.099e-05,0.0,0 STARLINK-3322,1 50838U 22001AM  22244.54872026  .00001099  00000-0  87151-4 0  9992,2 50838  53.2179 188.3490 0002218  57.7410 302.3796 15.08844880 36255,6917.865,95.437,541.265,538.196,0.0
50838.0,STARLINK-3322,PAYLOAD,2022-09-02 05:04:01,15.08831574,0.0002145,53.2179,185.3759,59.9383,300.1822,5.8269e-05,6.39e-06,0.0,0 STARLINK-3322,1 50838U 22001AM  22245.21113059  .00000639  00000-0  58269-4 0  9998,2 50838  53.2179 185.3759 0002145  59.9383 300.1822 15.08831574 36355,6917.906,95.438,541.255,538.2869999999998,0.0
50838.0,STARLINK-3322,PAYLOAD,2022-09-03 04:54:48,15.08845593,0.000215,53.2177,180.9157,60.405,299.7156,7.9397e-05,9.76e-06,0.0,0 STARLINK-3322,1 50838U 22001AM  22246.20472324  .00000976  00000-0  79397-4 0  9990,2 50838  53.2177 180.9157 0002150  60.4050 299.7156 15.08845593 37709,6917.863,95.437,541.216,538.241,0.0
50838.0,STARLINK-3322,PAYLOAD,2022-09-03 12:51:44,15.08836146,0.0002124,53.2173,179.4289,60.8079,299.3125,-2.4605e-05,-6.8e-06,0.0,0 STARLINK-3322,1 50838U 22001AM  22246.53593214 -.00000680  00000-0 -24605-4 0  9994,2 50838  53.2173 179.4289 0002124  60.8079 299.3125 15.08836146 36558,6917.892,95.438,541.227,538.288,0.0
50838.0,STARLINK-3322,PAYLOAD,2022-09-03 19:13:16,15.0884148,0.0002638,53.2175,178.2372,64.9584,295.1682,-3.3855e-05,-8.27e-06,0.0,0 STARLINK-3322,1 50838U 22001AM  22246.80089072 -.00000827  00000-0 -33855-4 0  9996,2 50838  53.2175 178.2372 0002638  64.9584 295.1682 15.08841480 36599,6917.876,95.437,541.566,537.9159999999998,0.0
50838.0,STARLINK-3322,PAYLOAD,2022-09-04 04:45:35,15.08842785,0.0002142,53.2176,176.4544,61.574,298.5468,0.00011728,1.579e-05,0.0,0 STARLINK-3322,1 50838U 22001AM  22247.19832426  .00001579  00000-0  11728-3 0  9995,2 50838  53.2176 176.4544 0002142  61.5740 298.5468 15.08842785 37856,6917.871999999999,95.437,541.219,538.255,0.0
50838.0,STARLINK-3322,PAYLOAD,2022-09-04 12:42:30,15.08855002,0.0002171,53.2179,174.9681,62.6917,297.4296,0.00021294,3.104e-05,0.0,0 STARLINK-3322,1 50838U 22001AM  22247.52951519  .00003104  00000-0  21294-3 0  9992,2 50838  53.2179 174.9681 0002171  62.6917 297.4296 15.08855002 36700,6917.835,95.437,541.201,538.198,0.0
50838.0,STARLINK-3322,PAYLOAD,2022-09-05 04:36:21,15.0885819,0.0002101,53.2171,171.9945,64.0146,296.1062,0.00028696,4.284e-05,0.0,0 STARLINK-3322,1 50838U 22001AM  22248.19191398  .00004284  00000-0  28696-3 0  9990,2 50838  53.2171 171.9945 0002101  64.0146 296.1062 15.08858190 36804,6917.825,95.436,541.143,538.236,0.0
50838.0,STARLINK-3322,PAYLOAD,2022-09-05 18:54:49,15.08848871,0.0002165,53.2162,169.31799999999996,62.7413,297.38,7.9853e-05,9.83e-06,0.0,0 STARLINK-3322,1 50838U 22001AM  22248.78807478  .00000983  00000-0  79853-4 0  9992,2 50838  53.2162 169.3180 0002165  62.7413 297.3800 15.08848871 36895,6917.853,95.437,541.216,538.221,0.0
50838.0,STARLINK-3322,PAYLOAD,2022-09-06 04:27:08,15.0883707,0.0002147,53.2175,167.5346,59.715,300.4054,-0.00013467,-2.431e-05,0.0,0 STARLINK-3322,1 50838U 22001AM  22249.18551770 -.00002431  00000-0 -13467-3 0  9998,2 50838  53.2175 167.5346 0002147  59.7150 300.4054 15.08837070 38154,6917.889,95.438,541.24,538.269,0.0
50838.0,STARLINK-3322,PAYLOAD,2022-09-06 18:45:38,15.08822652,0.0001975,53.2163,164.8571,60.3888,299.7301,-0.00028214,-4.774e-05,0.0,0 STARLINK-3322,1 50838U 22001AM  22249.78169169 -.00004774  00000-0 -28214-3 0  9999,2 50838  53.2163 164.8571 0001975  60.3888 299.7301 15.08822652 38240,6917.933000000001,95.439,541.165,538.432,0.0
50838.0,STARLINK-3322,PAYLOAD,2022-09-07 04:17:57,15.08827408,0.0001934,53.2175,163.0739,58.2726,301.8454,-0.00012803,-2.325e-05,0.0,0 STARLINK-3322,1 50838U 22001AM  22250.17913815 -.00002325  00000-0 -12803-3 0  9996,2 50838  53.2175 163.0739 0001934  58.2726 301.8454 15.08827408 37104,6917.919,95.438,541.122,538.446,0.0
50838.0,STARLINK-3322,PAYLOAD,2022-09-08 02:33:21,15.08835983,0.0001901,53.2182,158.9115,57.24,302.8775,7.369600000000001e-05,8.85e-06,0.0,0 STARLINK-3322,1 50838U 22001AM  22251.10649337  .00000885  00000-0  73696-4 0  9990,2 50838  53.2182 158.9115 0001901  57.2400 302.8775 15.08835983 38447,6917.893,95.438,541.073,538.443,0.0
50838.0,STARLINK-3322,PAYLOAD,2022-09-08 10:30:16,15.088343599999998,0.0001844,53.2179,157.4245,55.6909,304.4257,0.00025569,3.783e-05,0.0,0 STARLINK-3322,1 50838U 22001AM  22251.43769165  .00003783  00000-0  25569-3 0  9993,2 50838  53.2179 157.4245 0001844  55.6909 304.4257 15.08834360 37296,6917.898,95.438,541.038,538.487,0.0
50838.0,STARLINK-3322,PAYLOAD,2022-09-08 18:27:13,15.08828278,0.0001828,53.2181,155.9383,58.006,302.1109,0.00016584,2.351e-05,0.0,0 STARLINK-3322,1 50838U 22001AM  22251.76890112  .00002351  00000-0  16584-3 0  9993,2 50838  53.2181 155.9383 0001828  58.0060 302.1109 15.08828278 38543,6917.916,95.438,541.0459999999998,538.5169999999998,0.0
50838.0,STARLINK-3322,PAYLOAD,2022-09-09 03:59:31,15.08837094,0.0001786,53.2181,154.154,58.0538,302.0628,0.0002203,3.219e-05,0.0,0 STARLINK-3322,1 50838U 22001AM  22252.16633706  .00003219  00000-0  22030-3 0  9999,2 50838  53.2181 154.1540 0001786  58.0538 302.0628 15.08837094 38600,6917.889,95.438,540.99,538.519,0.0
50838.0,STARLINK-3322,PAYLOAD,2022-09-09 10:21:03,15.088424300000002,0.0001811999999999,53.2184,152.9647,58.33,301.7869,0.00019863,2.875e-05,0.0,0 STARLINK-3322,1 50838U 22001AM  22252.43129427  .00002875  00000-0  19863-3 0  9996,2 50838  53.2184 152.9647 0001812  58.3300 301.7869 15.08842430 37441,6917.873000000001,95.437,540.991,538.484,0.0
50838.0,STARLINK-3322,PAYLOAD,2022-09-09 18:17:59,15.0884312,0.0001823,53.2186,151.4778,59.484,300.6332,7.2981e-05,8.74e-06,0.0,0 STARLINK-3322,1 50838U 22001AM  22252.76249729  .00000874  00000-0  72981-4 0  9998,2 50838  53.2186 151.4778 0001823  59.4840 300.6332 15.08843120 37490,6917.871,95.437,540.997,538.475,0.0
50838.0,STARLINK-3322,PAYLOAD,2022-09-10 03:50:18,15.08840048,0.0001936,53.2186,149.6946,60.1937,299.9247,2.8268e-05,1.62e-06,0.0,0 STARLINK-3322,1 50838U 22001AM  22253.15993976  .00000162  00000-0  28268-4 0  9991,2 50838  53.2186 149.6946 0001936  60.1937 299.9247 15.08840048 37555,6917.88,95.438,541.085,538.406,0.0
50838.0,STARLINK-3322,PAYLOAD,2022-09-10 18:08:46,15.08841114,0.0001889,53.2183,147.018,57.1612,302.9562,8.0618e-05,9.95e-06,0.0,0 STARLINK-3322,1 50838U 22001AM  22253.75609679  .00000995  00000-0  80618-4 0  9992,2 50838  53.2183 147.0180 0001889  57.1612 302.9562 15.08841114 37647,6917.877,95.437,541.049,538.435,0.0
50838.0,STARLINK-3322,PAYLOAD,2022-09-11 02:05:42,15.08838396,0.0001831,53.218,145.5309,54.4455,305.6708,9.7532e-06,-1.33e-06,0.0,0 STARLINK-3322,1 50838U 22001AM  22254.08729975 -.00000133  00000-0  97532-5 0  9990,2 50838  53.2180 145.5309 0001831  54.4455 305.6708 15.08838396 37697,6917.885,95.438,541.0169999999998,538.484,0.0
50838.0,STARLINK-3322,PAYLOAD,2022-09-11 21:10:19,15.08850442,0.0001825,53.2183,141.9627,54.9108,305.2055,0.00013499,1.862e-05,0.0,0 STARLINK-3322,1 50838U 22001AM  22254.88216693  .00001862  00000-0  13499-3 0  9993,2 50838  53.2183 141.9627 0001825  54.9108 305.2055 15.08850442 37817,6917.848000000001,95.437,540.976,538.451,0.0
50838.0,STARLINK-3322,PAYLOAD,2022-09-12 01:56:28,15.08846381,0.0001899,53.2176,141.0715,42.128,317.9858,0.00016601,2.355e-05,0.0,0 STARLINK-3322,1 50838U 22001AM  22255.08088906  .00002355  00000-0  16601-3 0  9996,2 50838  53.2176 141.0715 0001899  42.1280 317.9858 15.08846381 39044,6917.861,95.437,541.04,538.4119999999998,0.0
